[
    {
        "OBJECT_NAME": "CHINASAT 31 (BEIDOU-1 G2)",
        "OBJECT_ID": "2000-082A",
        "EPOCH": "2026-06-20T09:17:35.560032",
        "MEAN_MOTION": 0.99255599,
        "ECCENTRICITY": 0.0080069,
        "INCLINATION": 12.5971,
        "RA_OF_ASC_NODE": 27.2931,
        "ARG_OF_PERICENTER": 88.3648,
        "MEAN_ANOMALY": 269.0512,
        "EPHEMERIS_TYPE": 0,
        "CLASSIFICATION_TYPE": "U",
        "NORAD_CAT_ID": 26643,
        "ELEMENT_SET_NO": 999,
        "REV_AT_EPOCH": 5210,
        "BSTAR": 0,
        "MEAN_MOTION_DOT": -2.68e-06,
        "MEAN_MOTION_DDOT": 0
    },
    {
        "OBJECT_NAME": "BEIDOU-1 G3",
        "OBJECT_ID": "2003-021A",
        "EPOCH": "2026-06-20T07:40:42.293280",
        "MEAN_MOTION": 0.99767577,
        "ECCENTRICITY": 0.001831,
        "INCLINATION": 11.3828,
        "RA_OF_ASC_NODE": 41.1798,
        "ARG_OF_PERICENTER": 308.5776,
        "MEAN_ANOMALY": 285.7836,
        "EPHEMERIS_TYPE": 0,
        "CLASSIFICATION_TYPE": "U",
        "NORAD_CAT_ID": 27813,
        "ELEMENT_SET_NO": 999,
        "REV_AT_EPOCH": 8433,
        "BSTAR": 0,
        "MEAN_MOTION_DOT": -2.3e-07,
        "MEAN_MOTION_DDOT": 0
    },
    {
        "OBJECT_NAME": "BEIDOU-1 G4",
        "OBJECT_ID": "2007-003A",
        "EPOCH": "2026-06-20T08:43:25.960224",
        "MEAN_MOTION": 0.99155465,
        "ECCENTRICITY": 0.005344,
        "INCLINATION": 9.8996,
        "RA_OF_ASC_NODE": 56.9234,
        "ARG_OF_PERICENTER": 275.7804,
        "MEAN_ANOMALY": 0.1577,
        "EPHEMERIS_TYPE": 0,
        "CLASSIFICATION_TYPE": "U",
        "NORAD_CAT_ID": 30323,
        "ELEMENT_SET_NO": 999,
        "REV_AT_EPOCH": 7073,
        "BSTAR": 0,
        "MEAN_MOTION_DOT": -1.68e-06,
        "MEAN_MOTION_DDOT": 0
    },
    {
        "OBJECT_NAME": "BEIDOU-2 M1",
        "OBJECT_ID": "2007-011A",
        "EPOCH": "2026-06-18T12:10:21.238464",
        "MEAN_MOTION": 1.77349429,
        "ECCENTRICITY": 0.00017602,
        "INCLINATION": 50.9302,
        "RA_OF_ASC_NODE": 219.2344,
        "ARG_OF_PERICENTER": 332.5646,
        "MEAN_ANOMALY": 27.5055,
        "EPHEMERIS_TYPE": 0,
        "CLASSIFICATION_TYPE": "U",
        "NORAD_CAT_ID": 31115,
        "ELEMENT_SET_NO": 999,
        "REV_AT_EPOCH": 7617,
        "BSTAR": 0,
        "MEAN_MOTION_DOT": 2.5e-07,
        "MEAN_MOTION_DDOT": 0
    },
    {
        "OBJECT_NAME": "BEIDOU-2 G1",
        "OBJECT_ID": "2010-001A",
        "EPOCH": "2026-06-21T13:56:59.076384",
        "MEAN_MOTION": 1.00268936,
        "ECCENTRICITY": 0.0002258,
        "INCLINATION": 4.3048,
        "RA_OF_ASC_NODE": 60.4064,
        "ARG_OF_PERICENTER": 301.2394,
        "MEAN_ANOMALY": 257.8138,
        "EPHEMERIS_TYPE": 0,
        "CLASSIFICATION_TYPE": "U",
        "NORAD_CAT_ID": 36287,
        "ELEMENT_SET_NO": 999,
        "REV_AT_EPOCH": 6021,
        "BSTAR": 0,
        "MEAN_MOTION_DOT": -2.83e-06,
        "MEAN_MOTION_DDOT": 0
    },
    {
        "OBJECT_NAME": "BEIDOU-2 G3",
        "OBJECT_ID": "2010-024A",
        "EPOCH": "2026-06-21T04:15:38.714688",
        "MEAN_MOTION": 1.00270872,
        "ECCENTRICITY": 0.0007877,
        "INCLINATION": 4.5263,
        "RA_OF_ASC_NODE": 61.5087,
        "ARG_OF_PERICENTER": 352.265,
        "MEAN_ANOMALY": 359.2042,
        "EPHEMERIS_TYPE": 0,
        "CLASSIFICATION_TYPE": "U",
        "NORAD_CAT_ID": 36590,
        "ELEMENT_SET_NO": 999,
        "REV_AT_EPOCH": 5880,
        "BSTAR": 0,
        "MEAN_MOTION_DOT": -1.4e-06,
        "MEAN_MOTION_DDOT": 0
    },
    {
        "OBJECT_NAME": "BEIDOU-2 IGSO-1",
        "OBJECT_ID": "2010-036A",
        "EPOCH": "2026-06-20T22:01:22.240992",
        "MEAN_MOTION": 1.00270895,
        "ECCENTRICITY": 0.0059141,
        "INCLINATION": 54.3041,
        "RA_OF_ASC_NODE": 162.9249,
        "ARG_OF_PERICENTER": 225.3137,
        "MEAN_ANOMALY": 318.8441,
        "EPHEMERIS_TYPE": 0,
        "CLASSIFICATION_TYPE": "U",
        "NORAD_CAT_ID": 36828,
        "ELEMENT_SET_NO": 999,
        "REV_AT_EPOCH": 5813,
        "BSTAR": 0,
        "MEAN_MOTION_DOT": -7e-07,
        "MEAN_MOTION_DDOT": 0
    },
    {
        "OBJECT_NAME": "BEIDOU-2 G4",
        "OBJECT_ID": "2010-057A",
        "EPOCH": "2026-06-21T12:07:38.862624",
        "MEAN_MOTION": 1.00270792,
        "ECCENTRICITY": 0.0005183,
        "INCLINATION": 3.6588,
        "RA_OF_ASC_NODE": 68.9306,
        "ARG_OF_PERICENTER": 195.6147,
        "MEAN_ANOMALY": 347.0523,
        "EPHEMERIS_TYPE": 0,
        "CLASSIFICATION_TYPE": "U",
        "NORAD_CAT_ID": 37210,
        "ELEMENT_SET_NO": 999,
        "REV_AT_EPOCH": 5733,
        "BSTAR": 0,
        "MEAN_MOTION_DOT": -1.15e-06,
        "MEAN_MOTION_DDOT": 0
    },
    {
        "OBJECT_NAME": "BEIDOU-2 IGSO-2",
        "OBJECT_ID": "2010-068A",
        "EPOCH": "2026-06-19T21:55:00.143040",
        "MEAN_MOTION": 1.00282229,
        "ECCENTRICITY": 0.00559191,
        "INCLINATION": 47.5419,
        "RA_OF_ASC_NODE": 271.7972,
        "ARG_OF_PERICENTER": 212.8118,
        "MEAN_ANOMALY": 220.2454,
        "EPHEMERIS_TYPE": 0,
        "CLASSIFICATION_TYPE": "U",
        "NORAD_CAT_ID": 37256,
        "ELEMENT_SET_NO": 999,
        "REV_AT_EPOCH": 5682,
        "BSTAR": 0,
        "MEAN_MOTION_DOT": -2.25e-06,
        "MEAN_MOTION_DDOT": 0
    },
    {
        "OBJECT_NAME": "BEIDOU-2 IGSO-3",
        "OBJECT_ID": "2011-013A",
        "EPOCH": "2026-06-18T14:41:11.762880",
        "MEAN_MOTION": 1.00267082,
        "ECCENTRICITY": 0.0034295,
        "INCLINATION": 62.4088,
        "RA_OF_ASC_NODE": 40.1377,
        "ARG_OF_PERICENTER": 184.6608,
        "MEAN_ANOMALY": 10.0015,
        "EPHEMERIS_TYPE": 0,
        "CLASSIFICATION_TYPE": "U",
        "NORAD_CAT_ID": 37384,
        "ELEMENT_SET_NO": 999,
        "REV_AT_EPOCH": 5567,
        "BSTAR": 0,
        "MEAN_MOTION_DOT": -1.9e-06,
        "MEAN_MOTION_DDOT": 0
    },
    {
        "OBJECT_NAME": "BEIDOU-2 IGSO-4",
        "OBJECT_ID": "2011-038A",
        "EPOCH": "2026-06-19T23:19:15.452832",
        "MEAN_MOTION": 1.00284537,
        "ECCENTRICITY": 0.01595162,
        "INCLINATION": 54.6006,
        "RA_OF_ASC_NODE": 165.6472,
        "ARG_OF_PERICENTER": 231.4774,
        "MEAN_ANOMALY": 314.4028,
        "EPHEMERIS_TYPE": 0,
        "CLASSIFICATION_TYPE": "U",
        "NORAD_CAT_ID": 37763,
        "ELEMENT_SET_NO": 999,
        "REV_AT_EPOCH": 5467,
        "BSTAR": 0,
        "MEAN_MOTION_DOT": 2.2e-07,
        "MEAN_MOTION_DDOT": 0
    }
]